IRIDIUM 116             
1 43072U 17083C   25281.83901765  .00000308  00000+0  10288-3 0  9994
2 43072  86.3934  67.0621 0001900  85.7099 274.4314 14.34218150408142
IRIDIUM 130             
1 43073U 17083D   25281.45845914  .00000125  00000+0  37512-4 0  9993
2 43073  86.3945  67.4727 0002106  81.4303 278.7131 14.34218604408032
IRIDIUM 151             
1 43074U 17083E   25281.50285672  .00000501  00000+0  17195-3 0  9991
2 43074  86.3934  67.2550 0001885  86.2782 273.8629 14.34217384408065
IRIDIUM 134             
1 43075U 17083F   25281.47114809  .00000154  00000+0  47817-4 0  9990
2 43075  86.3937  67.2729 0002149  83.6672 276.4769 14.34217430408022
IRIDIUM 137             
1 43076U 17083G   25281.90244280  .00000204  00000+0  65906-4 0  9991
2 43076  86.3938  67.1801 0001492  87.8574 272.2792 14.34217842408152
IRIDIUM 141             
1 43077U 17083H   25281.47748810 -.00000174  00000+0 -69044-4 0  9997
2 43077  86.3931  67.2031 0002013  95.5656 264.5770 14.34216493408093
IRIDIUM 153             
1 43078U 17083J   25281.35990189  .00000307  00000+0  10253-3 0  9996
2 43078  86.3997  35.7254 0002466  99.2165 260.9310 14.34218829409187
IRIDIUM 131             
1 43079U 17083K   25281.81364632  .00000162  00000+0  50802-4 0  9990
2 43079  86.3940  67.2314 0002015  94.9230 265.2196 14.34217012408078
